[{"OBJECT_NAME":"SKYSAT-A","OBJECT_ID":"2013-066C","EPOCH":"2026-03-03T02:02:36.838176","MEAN_MOTION":15.12293304,"ECCENTRICITY":0.0020651,"INCLINATION":97.3967,"RA_OF_ASC_NODE":114.8336,"ARG_OF_PERICENTER":324.6807,"MEAN_ANOMALY":35.3055,"EPHEMERIS_TYPE":0,"CLASSIFICATION_TYPE":"U","NORAD_CAT_ID":39418,"ELEMENT_SET_NO":999,"REV_AT_EPOCH":67244,"BSTAR":0.00026551,"MEAN_MOTION_DOT":4.555e-5,"MEAN_MOTION_DDOT":0},{"OBJECT_NAME":"SKYSAT-B","OBJECT_ID":"2014-037D","EPOCH":"2026-03-03T09:46:29.378208","MEAN_MOTION":14.87694698,"ECCENTRICITY":0.0004192,"INCLINATION":98.3719,"RA_OF_ASC_NODE":15.4435,"ARG_OF_PERICENTER":260.3685,"MEAN_ANOMALY":99.7057,"EPHEMERIS_TYPE":0,"CLASSIFICATION_TYPE":"U","NORAD_CAT_ID":40072,"ELEMENT_SET_NO":999,"REV_AT_EPOCH":63023,"BSTAR":0.00029826,"MEAN_MOTION_DOT":2.656e-5,"MEAN_MOTION_DDOT":0},{"OBJECT_NAME":"SKYSAT-C1","OBJECT_ID":"2016-040C","EPOCH":"2026-03-03T01:10:42.626208","MEAN_MOTION":15.343469,"ECCENTRICITY":0.0004007,"INCLINATION":96.9708,"RA_OF_ASC_NODE":99.583,"ARG_OF_PERICENTER":66.7763,"MEAN_ANOMALY":293.3903,"EPHEMERIS_TYPE":0,"CLASSIFICATION_TYPE":"U","NORAD_CAT_ID":41601,"ELEMENT_SET_NO":999,"REV_AT_EPOCH":54158,"BSTAR":0.00035069,"MEAN_MOTION_DOT":0.00011597,"MEAN_MOTION_DDOT":0},{"OBJECT_NAME":"SKYSAT-C4","OBJECT_ID":"2016-058B","EPOCH":"2026-03-03T01:12:09.270720","MEAN_MOTION":15.45093504,"ECCENTRICITY":9.1e-5,"INCLINATION":96.929,"RA_OF_ASC_NODE":88.4551,"ARG_OF_PERICENTER":78.484,"MEAN_ANOMALY":281.6512,"EPHEMERIS_TYPE":0,"CLASSIFICATION_TYPE":"U","NORAD_CAT_ID":41771,"ELEMENT_SET_NO":999,"REV_AT_EPOCH":52906,"BSTAR":0.00040663,"MEAN_MOTION_DOT":0.00019171,"MEAN_MOTION_DDOT":0},{"OBJECT_NAME":"SKYSAT-C5","OBJECT_ID":"2016-058C","EPOCH":"2026-03-03T08:50:43.428480","MEAN_MOTION":15.34142144,"ECCENTRICITY":0.0001894,"INCLINATION":97.0626,"RA_OF_ASC_NODE":107.7057,"ARG_OF_PERICENTER":85.9369,"MEAN_ANOMALY":274.2091,"EPHEMERIS_TYPE":0,"CLASSIFICATION_TYPE":"U","NORAD_CAT_ID":41772,"ELEMENT_SET_NO":999,"REV_AT_EPOCH":52752,"BSTAR":0.00032095,"MEAN_MOTION_DOT":0.00010534,"MEAN_MOTION_DDOT":0},{"OBJECT_NAME":"SKYSAT-C2","OBJECT_ID":"2016-058D","EPOCH":"2026-03-03T00:19:56.055072","MEAN_MOTION":15.39484683,"ECCENTRICITY":0.0005346,"INCLINATION":97.0283,"RA_OF_ASC_NODE":88.2301,"ARG_OF_PERICENTER":83.0911,"MEAN_ANOMALY":277.0944,"EPHEMERIS_TYPE":0,"CLASSIFICATION_TYPE":"U","NORAD_CAT_ID":41773,"ELEMENT_SET_NO":999,"REV_AT_EPOCH":52870,"BSTAR":0.00037737,"MEAN_MOTION_DOT":0.00014743,"MEAN_MOTION_DDOT":0},{"OBJECT_NAME":"SKYSAT-C3","OBJECT_ID":"2016-058E","EPOCH":"2026-03-03T00:42:56.327904","MEAN_MOTION":15.47964732,"ECCENTRICITY":0.0001519,"INCLINATION":96.9184,"RA_OF_ASC_NODE":97.1843,"ARG_OF_PERICENTER":100.8409,"MEAN_ANOMALY":259.3013,"EPHEMERIS_TYPE":0,"CLASSIFICATION_TYPE":"U","NORAD_CAT_ID":41774,"ELEMENT_SET_NO":999,"REV_AT_EPOCH":52966,"BSTAR":0.00045716,"MEAN_MOTION_DOT":0.00023815,"MEAN_MOTION_DDOT":0},{"OBJECT_NAME":"SKYSAT-C11","OBJECT_ID":"2017-068A","EPOCH":"2026-03-03T09:34:15.951072","MEAN_MOTION":15.51924937,"ECCENTRICITY":7.52e-5,"INCLINATION":97.4187,"RA_OF_ASC_NODE":207.1776,"ARG_OF_PERICENTER":86.7569,"MEAN_ANOMALY":273.3769,"EPHEMERIS_TYPE":0,"CLASSIFICATION_TYPE":"U","NORAD_CAT_ID":42987,"ELEMENT_SET_NO":999,"REV_AT_EPOCH":46680,"BSTAR":0.00052387,"MEAN_MOTION_DOT":0.00031411,"MEAN_MOTION_DDOT":0},{"OBJECT_NAME":"SKYSAT-C10","OBJECT_ID":"2017-068B","EPOCH":"2026-03-03T07:59:54.934080","MEAN_MOTION":15.32490656,"ECCENTRICITY":0.000116,"INCLINATION":97.4325,"RA_OF_ASC_NODE":198.4163,"ARG_OF_PERICENTER":90.6134,"MEAN_ANOMALY":269.524,"EPHEMERIS_TYPE":0,"CLASSIFICATION_TYPE":"U","NORAD_CAT_ID":42988,"ELEMENT_SET_NO":999,"REV_AT_EPOCH":46613,"BSTAR":0.00043642,"MEAN_MOTION_DOT":0.00013622,"MEAN_MOTION_DDOT":0},{"OBJECT_NAME":"SKYSAT-C9","OBJECT_ID":"2017-068C","EPOCH":"2026-03-03T08:09:52.384032","MEAN_MOTION":15.38636065,"ECCENTRICITY":0.0009672,"INCLINATION":97.425,"RA_OF_ASC_NODE":198.4064,"ARG_OF_PERICENTER":153.7418,"MEAN_ANOMALY":206.432,"EPHEMERIS_TYPE":0,"CLASSIFICATION_TYPE":"U","NORAD_CAT_ID":42989,"ELEMENT_SET_NO":999,"REV_AT_EPOCH":46646,"BSTAR":0.0004741,"MEAN_MOTION_DOT":0.00018056,"MEAN_MOTION_DDOT":0},{"OBJECT_NAME":"SKYSAT-C8","OBJECT_ID":"2017-068D","EPOCH":"2026-03-03T07:49:51.608064","MEAN_MOTION":15.34560506,"ECCENTRICITY":0.0001259,"INCLINATION":97.435,"RA_OF_ASC_NODE":197.8254,"ARG_OF_PERICENTER":113.2685,"MEAN_ANOMALY":246.869,"EPHEMERIS_TYPE":0,"CLASSIFICATION_TYPE":"U","NORAD_CAT_ID":42990,"ELEMENT_SET_NO":999,"REV_AT_EPOCH":46606,"BSTAR":0.00020005,"MEAN_MOTION_DOT":6.617e-5,"MEAN_MOTION_DDOT":0},{"OBJECT_NAME":"SKYSAT-C7","OBJECT_ID":"2017-068E","EPOCH":"2026-03-03T07:35:16.930752","MEAN_MOTION":15.34512004,"ECCENTRICITY":0.0007382,"INCLINATION":97.4355,"RA_OF_ASC_NODE":198.7983,"ARG_OF_PERICENTER":123.3852,"MEAN_ANOMALY":236.8098,"EPHEMERIS_TYPE":0,"CLASSIFICATION_TYPE":"U","NORAD_CAT_ID":42991,"ELEMENT_SET_NO":999,"REV_AT_EPOCH":46612,"BSTAR":0.00045912,"MEAN_MOTION_DOT":0.00015294,"MEAN_MOTION_DDOT":0},{"OBJECT_NAME":"SKYSAT-C6","OBJECT_ID":"2017-068F","EPOCH":"2026-03-03T08:51:18.811872","MEAN_MOTION":15.32557813,"ECCENTRICITY":0.0003545,"INCLINATION":97.4389,"RA_OF_ASC_NODE":199.1542,"ARG_OF_PERICENTER":127.5584,"MEAN_ANOMALY":232.598,"EPHEMERIS_TYPE":0,"CLASSIFICATION_TYPE":"U","NORAD_CAT_ID":42992,"ELEMENT_SET_NO":999,"REV_AT_EPOCH":46610,"BSTAR":0.00042938,"MEAN_MOTION_DOT":0.00013431,"MEAN_MOTION_DDOT":0},{"OBJECT_NAME":"SKYSAT-C12","OBJECT_ID":"2018-099AR","EPOCH":"2026-03-03T00:35:38.916672","MEAN_MOTION":15.45314497,"ECCENTRICITY":0.000483,"INCLINATION":96.9381,"RA_OF_ASC_NODE":89.7275,"ARG_OF_PERICENTER":155.2688,"MEAN_ANOMALY":204.8795,"EPHEMERIS_TYPE":0,"CLASSIFICATION_TYPE":"U","NORAD_CAT_ID":43797,"ELEMENT_SET_NO":999,"REV_AT_EPOCH":40544,"BSTAR":0.00041563,"MEAN_MOTION_DOT":0.00019754,"MEAN_MOTION_DDOT":0},{"OBJECT_NAME":"SKYSAT-C13","OBJECT_ID":"2018-099AW","EPOCH":"2026-03-03T09:06:15.128064","MEAN_MOTION":15.75447449,"ECCENTRICITY":0.0003301,"INCLINATION":96.9419,"RA_OF_ASC_NODE":110.0055,"ARG_OF_PERICENTER":225.5468,"MEAN_ANOMALY":134.5529,"EPHEMERIS_TYPE":0,"CLASSIFICATION_TYPE":"U","NORAD_CAT_ID":43802,"ELEMENT_SET_NO":999,"REV_AT_EPOCH":40617,"BSTAR":0.00058212,"MEAN_MOTION_DOT":0.00088603,"MEAN_MOTION_DDOT":0},{"OBJECT_NAME":"FLOCK 4Q-16","OBJECT_ID":"2023-174R","EPOCH":"2026-03-03T11:18:54.687456","MEAN_MOTION":15.44384269,"ECCENTRICITY":0.0007915,"INCLINATION":97.3875,"RA_OF_ASC_NODE":148.498,"ARG_OF_PERICENTER":177.9272,"MEAN_ANOMALY":182.2011,"EPHEMERIS_TYPE":0,"CLASSIFICATION_TYPE":"U","NORAD_CAT_ID":58271,"ELEMENT_SET_NO":999,"REV_AT_EPOCH":12923,"BSTAR":0.00064525,"MEAN_MOTION_DOT":0.0002981,"MEAN_MOTION_DDOT":0},{"OBJECT_NAME":"FLOCK 4Q-11","OBJECT_ID":"2023-174T","EPOCH":"2026-03-03T05:18:27.852480","MEAN_MOTION":15.44738949,"ECCENTRICITY":0.0007542,"INCLINATION":97.3914,"RA_OF_ASC_NODE":148.7172,"ARG_OF_PERICENTER":175.7597,"MEAN_ANOMALY":184.3717,"EPHEMERIS_TYPE":0,"CLASSIFICATION_TYPE":"U","NORAD_CAT_ID":58273,"ELEMENT_SET_NO":999,"REV_AT_EPOCH":12920,"BSTAR":0.00061973,"MEAN_MOTION_DOT":0.00028968,"MEAN_MOTION_DDOT":0}]
